{
  "type": "FeatureCollection",
  "features": [
    {
      "type": "Feature",
      "properties": {
        "norad_id": 66505,
        "name": "STARLINK-34766",
        "group": "last-30-days",
        "lat": -42.97092141293617,
        "lon": 59.92897459521286,
        "alt_km": 417.21178186097495,
        "timestamp": "2025-12-08T17:43:03.631947+00:00",
        "meta_object_name": "STARLINK-34766",
        "meta_object_id": "2025-263W",
        "meta_epoch": "2025-12-08T06:00:02.999808",
        "meta_mean_motion": 15.50499366,
        "meta_eccentricity": 0.00017948,
        "meta_inclination": 43.0004,
        "meta_ra_of_asc_node": 151.3444,
        "meta_arg_of_pericenter": 282.0147,
        "meta_mean_anomaly": 140.6623,
        "meta_ephemeris_type": 0,
        "meta_classification_type": "U",
        "meta_norad_cat_id": 66505,
        "meta_element_set_no": 999,
        "meta_rev_at_epoch": 491,
        "meta_bstar": 0.0014836788,
        "meta_mean_motion_dot": 0.00087429,
        "meta_mean_motion_ddot": 0,
        "tle_line1": "1 66505U 25263W   25342.25003472  .00087429  00000+0  14837-2 0  9993",
        "tle_line2": "2 66505  43.0004 151.3444 0001794 282.0147 140.6623 15.50499366  4916"
      },
      "geometry": {
        "type": "Point",
        "coordinates": [
          59.92897459521286,
          -42.97092141293617
        ]
      }
    },
    {
      "type": "Feature",
      "properties": {
        "norad_id": 66506,
        "name": "STARLINK-34765",
        "group": "last-30-days",
        "lat": -42.908607405166386,
        "lon": 62.53158342855254,
        "alt_km": 417.22022291471967,
        "timestamp": "2025-12-08T17:43:03.631957+00:00",
        "meta_object_name": "STARLINK-34765",
        "meta_object_id": "2025-263X",
        "meta_epoch": "2025-12-08T06:00:02.999808",
        "meta_mean_motion": 15.50498593,
        "meta_eccentricity": 0.00017875,
        "meta_inclination": 43.0004,
        "meta_ra_of_asc_node": 151.3404,
        "meta_arg_of_pericenter": 283.1972,
        "meta_mean_anomaly": 141.3955,
        "meta_ephemeris_type": 0,
        "meta_classification_type": "U",
        "meta_norad_cat_id": 66506,
        "meta_element_set_no": 999,
        "meta_rev_at_epoch": 491,
        "meta_bstar": 0.0014364698,
        "meta_mean_motion_dot": 0.00084603,
        "meta_mean_motion_ddot": 0,
        "tle_line1": "1 66506U 25263X   25342.25003472  .00084603  00000+0  14365-2 0  9991",
        "tle_line2": "2 66506  43.0004 151.3404 0001787 283.1972 141.3955 15.50498593  4910"
      },
      "geometry": {
        "type": "Point",
        "coordinates": [
          62.53158342855254,
          -42.908607405166386
        ]
      }
    },
    {
      "type": "Feature",
      "properties": {
        "norad_id": 66507,
        "name": "STARLINK-34767",
        "group": "last-30-days",
        "lat": -42.60418532931037,
        "lon": 67.7481784631397,
        "alt_km": 417.5735294950018,
        "timestamp": "2025-12-08T17:43:03.631967+00:00",
        "meta_object_name": "STARLINK-34767",
        "meta_object_id": "2025-263Y",
        "meta_epoch": "2025-12-08T06:00:02.999808",
        "meta_mean_motion": 15.50569839,
        "meta_eccentricity": 0.00014153,
        "meta_inclination": 43.0005,
        "meta_ra_of_asc_node": 151.3295,
        "meta_arg_of_pericenter": 266.172,
        "meta_mean_anomaly": 162.2512,
        "meta_ephemeris_type": 0,
        "meta_classification_type": "U",
        "meta_norad_cat_id": 66507,
        "meta_element_set_no": 999,
        "meta_rev_at_epoch": 491,
        "meta_bstar": -0.00069080488,
        "meta_mean_motion_dot": -0.00040644,
        "meta_mean_motion_ddot": 0,
        "tle_line1": "1 66507U 25263Y   25342.25003472 -.00040644  00000+0 -69080-3 0  9996",
        "tle_line2": "2 66507  43.0005 151.3295 0001415 266.1720 162.2512 15.50569839  4913"
      },
      "geometry": {
        "type": "Point",
        "coordinates": [
          67.7481784631397,
          -42.60418532931037
        ]
      }
    },
    {
      "type": "Feature",
      "properties": {
        "norad_id": 66508,
        "name": "STARLINK-35608",
        "group": "last-30-days",
        "lat": -41.72106646287154,
        "lon": 75.3580379427611,
        "alt_km": 417.1699553735016,
        "timestamp": "2025-12-08T17:43:03.631981+00:00",
        "meta_object_name": "STARLINK-35608",
        "meta_object_id": "2025-263Z",
        "meta_epoch": "2025-12-08T06:00:02.999808",
        "meta_mean_motion": 15.50499931,
        "meta_eccentricity": 0.00017539,
        "meta_inclination": 43.0004,
        "meta_ra_of_asc_node": 151.3162,
        "meta_arg_of_pericenter": 284.9952,
        "meta_mean_anomaly": 149.1762,
        "meta_ephemeris_type": 0,
        "meta_classification_type": "U",
        "meta_norad_cat_id": 66508,
        "meta_element_set_no": 999,
        "meta_rev_at_epoch": 491,
        "meta_bstar": 0.001402185,
        "meta_mean_motion_dot": 0.00082558,
        "meta_mean_motion_ddot": 0,
        "tle_line1": "1 66508U 25263Z   25342.25003472  .00082558  00000+0  14022-2 0  9990",
        "tle_line2": "2 66508  43.0004 151.3162 0001753 284.9952 149.1762 15.50499931  4912"
      },
      "geometry": {
        "type": "Point",
        "coordinates": [
          75.3580379427611,
          -41.72106646287154
        ]
      }
    },
    {
      "type": "Feature",
      "properties": {
        "norad_id": 66509,
        "name": "STARLINK-35598",
        "group": "last-30-days",
        "lat": -39.77277616925179,
        "lon": 85.15622247982066,
        "alt_km": 417.4841275116614,
        "timestamp": "2025-12-08T17:43:03.631992+00:00",
        "meta_object_name": "STARLINK-35598",
        "meta_object_id": "2025-263AA",
        "meta_epoch": "2025-12-08T06:00:02.999808",
        "meta_mean_motion": 15.50571171,
        "meta_eccentricity": 0.00014639,
        "meta_inclination": 43.0003,
        "meta_ra_of_asc_node": 151.2944,
        "meta_arg_of_pericenter": 265.3738,
        "meta_mean_anomaly": 176.468,
        "meta_ephemeris_type": 0,
        "meta_classification_type": "U",
        "meta_norad_cat_id": 66509,
        "meta_element_set_no": 999,
        "meta_rev_at_epoch": 491,
        "meta_bstar": -0.00071979924,
        "meta_mean_motion_dot": -0.00042329,
        "meta_mean_motion_ddot": 0,
        "tle_line1": "1 66509U 25263AA  25342.25003472 -.00042329  00000+0 -71980-3 0  9992",
        "tle_line2": "2 66509  43.0003 151.2944 0001463 265.3738 176.4680 15.50571171  4911"
      },
      "geometry": {
        "type": "Point",
        "coordinates": [
          85.15622247982066,
          -39.77277616925179
        ]
      }
    },
    {
      "type": "Feature",
      "properties": {
        "norad_id": 66510,
        "name": "STARLINK-35600",
        "group": "last-30-days",
        "lat": -41.30893598072988,
        "lon": 77.88246700955702,
        "alt_km": 417.5059398735839,
        "timestamp": "2025-12-08T17:43:03.632003+00:00",
        "meta_object_name": "STARLINK-35600",
        "meta_object_id": "2025-263AB",
        "meta_epoch": "2025-12-08T06:00:02.999808",
        "meta_mean_motion": 15.50570855,
        "meta_eccentricity": 0.00014477,
        "meta_inclination": 43.0005,
        "meta_ra_of_asc_node": 151.3094,
        "meta_arg_of_pericenter": 269.4476,
        "meta_mean_anomaly": 166.6405,
        "meta_ephemeris_type": 0,
        "meta_classification_type": "U",
        "meta_norad_cat_id": 66510,
        "meta_element_set_no": 999,
        "meta_rev_at_epoch": 491,
        "meta_bstar": -0.00067484084,
        "meta_mean_motion_dot": -0.00039719,
        "meta_mean_motion_ddot": 0,
        "tle_line1": "1 66510U 25263AB  25342.25003472 -.00039719  00000+0 -67484-3 0  9997",
        "tle_line2": "2 66510  43.0005 151.3094 0001447 269.4476 166.6405 15.50570855  4912"
      },
      "geometry": {
        "type": "Point",
        "coordinates": [
          77.88246700955702,
          -41.30893598072988
        ]
      }
    },
    {
      "type": "Feature",
      "properties": {
        "norad_id": 66511,
        "name": "STARLINK-35444",
        "group": "last-30-days",
        "lat": -40.34390646184704,
        "lon": 82.73177477800033,
        "alt_km": 417.2289017301837,
        "timestamp": "2025-12-08T17:43:03.632013+00:00",
        "meta_object_name": "STARLINK-35444",
        "meta_object_id": "2025-263AC",
        "meta_epoch": "2025-12-08T06:00:02.999808",
        "meta_mean_motion": 15.50502974,
        "meta_eccentricity": 0.00016128,
        "meta_inclination": 43.0002,
        "meta_ra_of_asc_node": 151.3005,
        "meta_arg_of_pericenter": 282.0446,
        "meta_mean_anomaly": 157.8778,
        "meta_ephemeris_type": 0,
        "meta_classification_type": "U",
        "meta_norad_cat_id": 66511,
        "meta_element_set_no": 999,
        "meta_rev_at_epoch": 491,
        "meta_bstar": 0.0011875923,
        "meta_mean_motion_dot": 0.00069763,
        "meta_mean_motion_ddot": 0,
        "tle_line1": "1 66511U 25263AC  25342.25003472  .00069763  00000+0  11876-2 0  9991",
        "tle_line2": "2 66511  43.0002 151.3005 0001612 282.0446 157.8778 15.50502974  4916"
      },
      "geometry": {
        "type": "Point",
        "coordinates": [
          82.73177477800033,
          -40.34390646184704
        ]
      }
    }
  ]
}